{
    "links": {
        "self": "http://www.neowsapp.com/rest/v1/neo/3733132?api_key=iIulBulltgU6a56xZRHN4H3l9WmuAYTsLGpBGhQ2"
    },
    "id": "3733132",
    "neo_reference_id": "3733132",
    "name": "(2015 VX)",
    "designation": "2015 VX",
    "nasa_jpl_url": "http://ssd.jpl.nasa.gov/sbdb.cgi?sstr=3733132",
    "absolute_magnitude_h": 23.7,
    "estimated_diameter": {
        "kilometers": {
            "estimated_diameter_min": 0.0483676488,
            "estimated_diameter_max": 0.1081533507
        },
        "meters": {
            "estimated_diameter_min": 48.3676488219,
            "estimated_diameter_max": 108.1533506775
        },
        "miles": {
            "estimated_diameter_min": 0.0300542543,
            "estimated_diameter_max": 0.0672033557
        },
        "feet": {
            "estimated_diameter_min": 158.6865169607,
            "estimated_diameter_max": 354.8338390368
        }
    },
    "is_potentially_hazardous_asteroid": false,
    "close_approach_data": [
        {
            "close_approach_date": "2015-11-08",
            "close_approach_date_full": "2015-Nov-08 08:52",
            "epoch_date_close_approach": 1446972720000,
            "relative_velocity": {
                "kilometers_per_second": "1.5936145173",
                "kilometers_per_hour": "5737.0122621514",
                "miles_per_hour": "3564.7563136685"
            },
            "miss_distance": {
                "astronomical": "0.1578502778",
                "lunar": "61.4037580642",
                "kilometers": "23614065.337788286",
                "miles": "14673099.8002229068"
            },
            "orbiting_body": "Earth"
        }
    ],
    "orbital_data": {
        "orbit_id": "14",
        "orbit_determination_date": "2017-04-06 08:31:03",
        "first_observation_date": "2015-11-01",
        "last_observation_date": "2015-12-20",
        "data_arc_in_days": 49,
        "observations_used": 62,
        "orbit_uncertainty": "6",
        "minimum_orbit_intersection": ".151718",
        "jupiter_tisserand_invariant": "4.642",
        "epoch_osculation": "2459000.5",
        "eccentricity": ".209177776338182",
        "semi_major_axis": "1.439283202886868",
        "inclination": "3.178404855577948",
        "ascending_node_longitude": "257.9147697032701",
        "orbital_period": "630.6927117966162",
        "perihelion_distance": "1.138217142986097",
        "perihelion_argument": "156.1555078536125",
        "aphelion_distance": "1.74034926278764",
        "perihelion_time": "2459238.595039542412",
        "mean_anomaly": "224.0951248808639",
        "mean_motion": ".5708009515037675",
        "equinox": "J2000",
        "orbit_class": {
            "orbit_class_type": "AMO",
            "orbit_class_description": "Near-Earth asteroid orbits similar to that of 1221 Amor",
            "orbit_class_range": "1.017 AU < q (perihelion) < 1.3 AU"
        }
    },
    "is_sentry_object": false
}